{
  "type": "FeatureCollection",
  "features": [
    {
      "type": "Feature",
      "properties": {
        "norad_id": 36680,
        "name": "FENGYUN 1C DEB",
        "group": "fengyun-1c-debris",
        "lat": -27.11000953835448,
        "lon": -24.43545760196974,
        "alt_km": 765.8286590210855,
        "timestamp": "2025-12-04T17:48:40.454448+00:00",
        "meta_object_name": "FENGYUN 1C DEB",
        "meta_object_id": "1999-025DZA",
        "meta_epoch": "2025-12-01T11:07:14.342016",
        "meta_mean_motion": 14.1858241,
        "meta_eccentricity": 0.01886112,
        "meta_inclination": 98.5478,
        "meta_ra_of_asc_node": 327.9868,
        "meta_arg_of_pericenter": 282.1822,
        "meta_mean_anomaly": 233.6728,
        "meta_ephemeris_type": 0,
        "meta_classification_type": "U",
        "meta_norad_cat_id": 36680,
        "meta_element_set_no": 999,
        "meta_rev_at_epoch": 64137,
        "meta_bstar": 0.00071360344,
        "meta_mean_motion_dot": 1.717e-05,
        "meta_mean_motion_ddot": 0,
        "tle_line1": "1 36680U 99025DZA 25335.46336044  .00001717  00000+0  71360-3 0  9991",
        "tle_line2": "2 36680  98.5478 327.9868 0188611 282.1822 233.6728 14.18582410641375"
      },
      "geometry": {
        "type": "Point",
        "coordinates": [
          -24.43545760196974,
          -27.11000953835448
        ]
      }
    },
    {
      "type": "Feature",
      "properties": {
        "norad_id": 36681,
        "name": "FENGYUN 1C DEB",
        "group": "fengyun-1c-debris",
        "lat": 51.20899399411963,
        "lon": -33.35416700160058,
        "alt_km": 828.5557200508747,
        "timestamp": "2025-12-04T17:48:40.454459+00:00",
        "meta_object_name": "FENGYUN 1C DEB",
        "meta_object_id": "1999-025DZB",
        "meta_epoch": "2025-11-19T06:21:10.816992",
        "meta_mean_motion": 14.10187867,
        "meta_eccentricity": 0.00454,
        "meta_inclination": 98.6964,
        "meta_ra_of_asc_node": 322.6587,
        "meta_arg_of_pericenter": 56.031,
        "meta_mean_anomaly": 304.5163,
        "meta_ephemeris_type": 0,
        "meta_classification_type": "U",
        "meta_norad_cat_id": 36681,
        "meta_element_set_no": 999,
        "meta_rev_at_epoch": 72427,
        "meta_bstar": 0.00080116575,
        "meta_mean_motion_dot": 1.39e-05,
        "meta_mean_motion_ddot": 0,
        "tle_line1": "1 36681U 99025DZB 25323.26470853  .00001390  00000+0  80117-3 0  9991",
        "tle_line2": "2 36681  98.6964 322.6587 0045400  56.0310 304.5163 14.10187867724276"
      },
      "geometry": {
        "type": "Point",
        "coordinates": [
          -33.35416700160058,
          51.20899399411963
        ]
      }
    },
    {
      "type": "Feature",
      "properties": {
        "norad_id": 36682,
        "name": "FENGYUN 1C DEB",
        "group": "fengyun-1c-debris",
        "lat": -12.527457037198241,
        "lon": -114.6353969043548,
        "alt_km": 887.0827869600471,
        "timestamp": "2025-12-04T17:48:40.454470+00:00",
        "meta_object_name": "FENGYUN 1C DEB",
        "meta_object_id": "1999-025DZC",
        "meta_epoch": "2025-11-25T04:16:29.525664",
        "meta_mean_motion": 13.70056399,
        "meta_eccentricity": 0.02353921,
        "meta_inclination": 98.4824,
        "meta_ra_of_asc_node": 235.0215,
        "meta_arg_of_pericenter": 324.0882,
        "meta_mean_anomaly": 34.464,
        "meta_ephemeris_type": 0,
        "meta_classification_type": "U",
        "meta_norad_cat_id": 36682,
        "meta_element_set_no": 999,
        "meta_rev_at_epoch": 61152,
        "meta_bstar": 0.0021541592,
        "meta_mean_motion_dot": 2.264e-05,
        "meta_mean_motion_ddot": 0,
        "tle_line1": "1 36682U 99025DZC 25329.17811951  .00002264  00000+0  21542-2 0  9993",
        "tle_line2": "2 36682  98.4824 235.0215 0235392 324.0882  34.4640 13.70056399611520"
      },
      "geometry": {
        "type": "Point",
        "coordinates": [
          -114.6353969043548,
          -12.527457037198241
        ]
      }
    },
    {
      "type": "Feature",
      "properties": {
        "norad_id": 36684,
        "name": "FENGYUN 1C DEB",
        "group": "fengyun-1c-debris",
        "lat": -27.38025303755371,
        "lon": -115.71075945948479,
        "alt_km": 583.5812005429061,
        "timestamp": "2025-12-04T17:48:40.454480+00:00",
        "meta_object_name": "FENGYUN 1C DEB",
        "meta_object_id": "1999-025DZE",
        "meta_epoch": "2025-11-29T05:08:15.355104",
        "meta_mean_motion": 14.94343173,
        "meta_eccentricity": 0.00233669,
        "meta_inclination": 99.4629,
        "meta_ra_of_asc_node": 62.5894,
        "meta_arg_of_pericenter": 152.1689,
        "meta_mean_anomaly": 208.0782,
        "meta_ephemeris_type": 0,
        "meta_classification_type": "U",
        "meta_norad_cat_id": 36684,
        "meta_element_set_no": 999,
        "meta_rev_at_epoch": 65699,
        "meta_bstar": 0.0047778381,
        "meta_mean_motion_dot": 0.00051944,
        "meta_mean_motion_ddot": 0,
        "tle_line1": "1 36684U 99025DZE 25333.21406661  .00051944  00000+0  47778-2 0  9991",
        "tle_line2": "2 36684  99.4629  62.5894 0023366 152.1689 208.0782 14.94343173656995"
      },
      "geometry": {
        "type": "Point",
        "coordinates": [
          -115.71075945948479,
          -27.38025303755371
        ]
      }
    },
    {
      "type": "Feature",
      "properties": {
        "norad_id": 36686,
        "name": "FENGYUN 1C DEB",
        "group": "fengyun-1c-debris",
        "lat": -79.6797134581001,
        "lon": -71.29088588996,
        "alt_km": 719.4532684729047,
        "timestamp": "2025-12-04T17:48:40.454489+00:00",
        "meta_object_name": "FENGYUN 1C DEB",
        "meta_object_id": "1999-025DZG",
        "meta_epoch": "2025-12-03T06:28:38.451072",
        "meta_mean_motion": 14.77013397,
        "meta_eccentricity": 0.0105396,
        "meta_inclination": 99.0011,
        "meta_ra_of_asc_node": 167.5819,
        "meta_arg_of_pericenter": 82.9406,
        "meta_mean_anomaly": 278.3773,
        "meta_ephemeris_type": 0,
        "meta_classification_type": "U",
        "meta_norad_cat_id": 36686,
        "meta_element_set_no": 999,
        "meta_rev_at_epoch": 65712,
        "meta_bstar": 0.0010973,
        "meta_mean_motion_dot": 8.421e-05,
        "meta_mean_motion_ddot": 0,
        "tle_line1": "1 36686U 99025DZG 25337.26988948  .00008421  00000+0  10973-2 0  9994",
        "tle_line2": "2 36686  99.0011 167.5819 0105396  82.9406 278.3773 14.77013397657121"
      },
      "geometry": {
        "type": "Point",
        "coordinates": [
          -71.29088588996,
          -79.6797134581001
        ]
      }
    },
    {
      "type": "Feature",
      "properties": {
        "norad_id": 36687,
        "name": "FENGYUN 1C DEB",
        "group": "fengyun-1c-debris",
        "lat": -7.506933779864328,
        "lon": 66.65190739513865,
        "alt_km": 853.2610259872718,
        "timestamp": "2025-12-04T17:48:40.454499+00:00",
        "meta_object_name": "FENGYUN 1C DEB",
        "meta_object_id": "1999-025DZH",
        "meta_epoch": "2025-12-03T00:48:50.166144",
        "meta_mean_motion": 14.04517636,
        "meta_eccentricity": 0.00903358,
        "meta_inclination": 98.7164,
        "meta_ra_of_asc_node": 63.8535,
        "meta_arg_of_pericenter": 292.8526,
        "meta_mean_anomaly": 66.3122,
        "meta_ephemeris_type": 0,
        "meta_classification_type": "U",
        "meta_norad_cat_id": 36687,
        "meta_element_set_no": 999,
        "meta_rev_at_epoch": 62586,
        "meta_bstar": 0.00040937059,
        "meta_mean_motion_dot": 6.35e-06,
        "meta_mean_motion_ddot": 0,
        "tle_line1": "1 36687U 99025DZH 25337.03391396  .00000635  00000+0  40937-3 0  9998",
        "tle_line2": "2 36687  98.7164  63.8535 0090335 292.8526  66.3122 14.04517636625865"
      },
      "geometry": {
        "type": "Point",
        "coordinates": [
          66.65190739513865,
          -7.506933779864328
        ]
      }
    },
    {
      "type": "Feature",
      "properties": {
        "norad_id": 36689,
        "name": "FENGYUN 1C DEB",
        "group": "fengyun-1c-debris",
        "lat": -59.88861932468056,
        "lon": -111.62754953182434,
        "alt_km": 772.370606102204,
        "timestamp": "2025-12-04T17:48:40.454510+00:00",
        "meta_object_name": "FENGYUN 1C DEB",
        "meta_object_id": "1999-025DZK",
        "meta_epoch": "2025-11-28T10:04:14.213280",
        "meta_mean_motion": 13.74189275,
        "meta_eccentricity": 0.03131537,
        "meta_inclination": 98.4796,
        "meta_ra_of_asc_node": 227.8431,
        "meta_arg_of_pericenter": 334.7216,
        "meta_mean_anomaly": 23.8887,
        "meta_ephemeris_type": 0,
        "meta_classification_type": "U",
        "meta_norad_cat_id": 36689,
        "meta_element_set_no": 999,
        "meta_rev_at_epoch": 58016,
        "meta_bstar": 0.0027905602,
        "meta_mean_motion_dot": 3.71e-05,
        "meta_mean_motion_ddot": 0,
        "tle_line1": "1 36689U 99025DZK 25332.41960895  .00003710  00000+0  27906-2 0  9990",
        "tle_line2": "2 36689  98.4796 227.8431 0313153 334.7216  23.8887 13.74189275580169"
      },
      "geometry": {
        "type": "Point",
        "coordinates": [
          -111.62754953182434,
          -59.88861932468056
        ]
      }
    }
  ]
}